{
  "province_stats": [
    {
      "count": 15,
      "total_ghost_votes": 39868,
      "areas": [
        {
          "area_code": "3010",
          "ghost_votes": 4364,
          "mp_winner_party": "PARTY-0037",
          "mp_number": "2"
        },
        {
          "area_code": "3007",
          "ghost_votes": 4171,
          "mp_winner_party": "PARTY-0009",
          "mp_number": "2"
        },
        {
          "area_code": "3011",
          "ghost_votes": 3781,
          "mp_winner_party": "PARTY-0009",
          "mp_number": "3"
        },
        {
          "area_code": "3015",
          "ghost_votes": 3322,
          "mp_winner_party": "PARTY-0009",
          "mp_number": "5"
        },
        {
          "area_code": "3008",
          "ghost_votes": 3138,
          "mp_winner_party": "PARTY-0009",
          "mp_number": "1"
        },
        {
          "area_code": "3005",
          "ghost_votes": 3134,
          "mp_winner_party": "PARTY-0009",
          "mp_number": "1"
        },
        {
          "area_code": "3012",
          "ghost_votes": 2694,
          "mp_winner_party": "PARTY-0009",
          "mp_number": "3"
        },
        {
          "area_code": "3009",
          "ghost_votes": 2448,
          "mp_winner_party": "PARTY-0037",
          "mp_number": "3"
        },
        {
          "area_code": "3016",
          "ghost_votes": 2432,
          "mp_winner_party": "PARTY-0037",
          "mp_number": "3"
        },
        {
          "area_code": "3002",
          "ghost_votes": 2297,
          "mp_winner_party": "PARTY-0009",
          "mp_number": "8"
        },
        {
          "area_code": "3004",
          "ghost_votes": 2212,
          "mp_winner_party": "PARTY-0009",
          "mp_number": "4"
        },
        {
          "area_code": "3006",
          "ghost_votes": 2171,
          "mp_winner_party": "PARTY-0009",
          "mp_number": "1"
        },
        {
          "area_code": "3013",
          "ghost_votes": 2092,
          "mp_winner_party": "PARTY-0009",
          "mp_number": "5"
        },
        {
          "area_code": "3003",
          "ghost_votes": 890,
          "mp_winner_party": "PARTY-0046",
          "mp_number": "5"
        },
        {
          "area_code": "3014",
          "ghost_votes": 722,
          "mp_winner_party": "PARTY-0046",
          "mp_number": "1"
        }
      ],
      "id": "30",
      "name": "นครราชสีมา"
    },
    {
      "count": 11,
      "total_ghost_votes": 31779,
      "areas": [
        {
          "area_code": "3405",
          "ghost_votes": 4255,
          "mp_winner_party": "PARTY-0037",
          "mp_number": "2"
        },
        {
          "area_code": "3410",
          "ghost_votes": 3981,
          "mp_winner_party": "PARTY-0021",
          "mp_number": "2"
        },
        {
          "area_code": "3409",
          "ghost_votes": 2946,
          "mp_winner_party": "PARTY-0021",
          "mp_number": "3"
        },
        {
          "area_code": "3411",
          "ghost_votes": 2874,
          "mp_winner_party": "PARTY-0037",
          "mp_number": "3"
        },
        {
          "area_code": "3402",
          "ghost_votes": 2871,
          "mp_winner_party": "PARTY-0021",
          "mp_number": "5"
        },
        {
          "area_code": "3401",
          "ghost_votes": 2831,
          "mp_winner_party": "PARTY-0009",
          "mp_number": "2"
        },
        {
          "area_code": "3403",
          "ghost_votes": 2632,
          "mp_winner_party": "PARTY-0021",
          "mp_number": "1"
        },
        {
          "area_code": "3404",
          "ghost_votes": 2523,
          "mp_winner_party": "PARTY-0009",
          "mp_number": "1"
        },
        {
          "area_code": "3406",
          "ghost_votes": 2423,
          "mp_winner_party": "PARTY-0009",
          "mp_number": "3"
        },
        {
          "area_code": "3407",
          "ghost_votes": 2421,
          "mp_winner_party": "PARTY-0037",
          "mp_number": "1"
        },
        {
          "area_code": "3408",
          "ghost_votes": 2022,
          "mp_winner_party": "PARTY-0037",
          "mp_number": "3"
        }
      ],
      "id": "34",
      "name": "อุบลราชธานี"
    },
    {
      "count": 6,
      "total_ghost_votes": 22158,
      "areas": [
        {
          "area_code": "6004",
          "ghost_votes": 5959,
          "mp_winner_party": "PARTY-0037",
          "mp_number": "2"
        },
        {
          "area_code": "6003",
          "ghost_votes": 5407,
          "mp_winner_party": "PARTY-0042",
          "mp_number": "5"
        },
        {
          "area_code": "6006",
          "ghost_votes": 4210,
          "mp_winner_party": "PARTY-0037",
          "mp_number": "2"
        },
        {
          "area_code": "6005",
          "ghost_votes": 2415,
          "mp_winner_party": "PARTY-0037",
          "mp_number": "4"
        },
        {
          "area_code": "6002",
          "ghost_votes": 2216,
          "mp_winner_party": "PARTY-0037",
          "mp_number": "3"
        },
        {
          "area_code": "6001",
          "ghost_votes": 1951,
          "mp_winner_party": "PARTY-0037",
          "mp_number": "3"
        }
      ],
      "id": "60",
      "name": "นครสวรรค์"
    },
    {
      "count": 8,
      "total_ghost_votes": 21222,
      "areas": [
        {
          "area_code": "4009",
          "ghost_votes": 3905,
          "mp_winner_party": "PARTY-0009",
          "mp_number": "2"
        },
        {
          "area_code": "4008",
          "ghost_votes": 2973,
          "mp_winner_party": "PARTY-0042",
          "mp_number": "3"
        },
        {
          "area_code": "4004",
          "ghost_votes": 2912,
          "mp_winner_party": "PARTY-0009",
          "mp_number": "5"
        },
        {
          "area_code": "4003",
          "ghost_votes": 2866,
          "mp_winner_party": "PARTY-0042",
          "mp_number": "1"
        },
        {
          "area_code": "4010",
          "ghost_votes": 2715,
          "mp_winner_party": "PARTY-0037",
          "mp_number": "5"
        },
        {
          "area_code": "4005",
          "ghost_votes": 2205,
          "mp_winner_party": "PARTY-0042",
          "mp_number": "3"
        },
        {
          "area_code": "4007",
          "ghost_votes": 1996,
          "mp_winner_party": "PARTY-0009",
          "mp_number": "4"
        },
        {
          "area_code": "4006",
          "ghost_votes": 1650,
          "mp_winner_party": "PARTY-0037",
          "mp_number": "4"
        }
      ],
      "id": "40",
      "name": "ขอนแก่น"
    },
    {
      "count": 7,
      "total_ghost_votes": 20248,
      "areas": [
        {
          "area_code": "3603",
          "ghost_votes": 4169,
          "mp_winner_party": "PARTY-0037",
          "mp_number": "1"
        },
        {
          "area_code": "3606",
          "ghost_votes": 3880,
          "mp_winner_party": "PARTY-0037",
          "mp_number": "5"
        },
        {
          "area_code": "3602",
          "ghost_votes": 3623,
          "mp_winner_party": "PARTY-0009",
          "mp_number": "3"
        },
        {
          "area_code": "3605",
          "ghost_votes": 2951,
          "mp_winner_party": "PARTY-0009",
          "mp_number": "5"
        },
        {
          "area_code": "3604",
          "ghost_votes": 2495,
          "mp_winner_party": "PARTY-0037",
          "mp_number": "5"
        },
        {
          "area_code": "3607",
          "ghost_votes": 2010,
          "mp_winner_party": "PARTY-0042",
          "mp_number": "4"
        },
        {
          "area_code": "3601",
          "ghost_votes": 1120,
          "mp_winner_party": "PARTY-0009",
          "mp_number": "2"
        }
      ],
      "id": "36",
      "name": "ชัยภูมิ"
    },
    {
      "count": 8,
      "total_ghost_votes": 20071,
      "areas": [
        {
          "area_code": "3309",
          "ghost_votes": 3826,
          "mp_winner_party": "PARTY-0037",
          "mp_number": "2"
        },
        {
          "area_code": "3303",
          "ghost_votes": 2827,
          "mp_winner_party": "PARTY-0037",
          "mp_number": "4"
        },
        {
          "area_code": "3308",
          "ghost_votes": 2762,
          "mp_winner_party": "PARTY-0037",
          "mp_number": "2"
        },
        {
          "area_code": "3306",
          "ghost_votes": 2595,
          "mp_winner_party": "PARTY-0037",
          "mp_number": "2"
        },
        {
          "area_code": "3304",
          "ghost_votes": 2201,
          "mp_winner_party": "PARTY-0037",
          "mp_number": "4"
        },
        {
          "area_code": "3305",
          "ghost_votes": 2089,
          "mp_winner_party": "PARTY-0037",
          "mp_number": "4"
        },
        {
          "area_code": "3302",
          "ghost_votes": 1953,
          "mp_winner_party": "PARTY-0037",
          "mp_number": "4"
        },
        {
          "area_code": "3301",
          "ghost_votes": 1818,
          "mp_winner_party": "PARTY-0037",
          "mp_number": "5"
        }
      ],
      "id": "33",
      "name": "ศรีสะเกษ"
    },
    {
      "count": 9,
      "total_ghost_votes": 19935,
      "areas": [
        {
          "area_code": "3108",
          "ghost_votes": 2820,
          "mp_winner_party": "PARTY-0037",
          "mp_number": "5"
        },
        {
          "area_code": "3110",
          "ghost_votes": 2588,
          "mp_winner_party": "PARTY-0037",
          "mp_number": "2"
        },
        {
          "area_code": "3104",
          "ghost_votes": 2543,
          "mp_winner_party": "PARTY-0037",
          "mp_number": "3"
        },
        {
          "area_code": "3107",
          "ghost_votes": 2391,
          "mp_winner_party": "PARTY-0037",
          "mp_number": "5"
        },
        {
          "area_code": "3109",
          "ghost_votes": 2191,
          "mp_winner_party": "PARTY-0037",
          "mp_number": "5"
        },
        {
          "area_code": "3102",
          "ghost_votes": 2189,
          "mp_winner_party": "PARTY-0037",
          "mp_number": "5"
        },
        {
          "area_code": "3101",
          "ghost_votes": 1888,
          "mp_winner_party": "PARTY-0037",
          "mp_number": "5"
        },
        {
          "area_code": "3103",
          "ghost_votes": 1874,
          "mp_winner_party": "PARTY-0037",
          "mp_number": "1"
        },
        {
          "area_code": "3106",
          "ghost_votes": 1451,
          "mp_winner_party": "PARTY-0037",
          "mp_number": "4"
        }
      ],
      "id": "31",
      "name": "บุรีรัมย์"
    },
    {
      "count": 8,
      "total_ghost_votes": 19159,
      "areas": [
        {
          "area_code": "3208",
          "ghost_votes": 4228,
          "mp_winner_party": "PARTY-0037",
          "mp_number": "2"
        },
        {
          "area_code": "3201",
          "ghost_votes": 2650,
          "mp_winner_party": "PARTY-0037",
          "mp_number": "5"
        },
        {
          "area_code": "3206",
          "ghost_votes": 2430,
          "mp_winner_party": "PARTY-0037",
          "mp_number": "4"
        },
        {
          "area_code": "3207",
          "ghost_votes": 2242,
          "mp_winner_party": "PARTY-0037",
          "mp_number": "4"
        },
        {
          "area_code": "3202",
          "ghost_votes": 2156,
          "mp_winner_party": "PARTY-0037",
          "mp_number": "7"
        },
        {
          "area_code": "3205",
          "ghost_votes": 2103,
          "mp_winner_party": "PARTY-0037",
          "mp_number": "4"
        },
        {
          "area_code": "3204",
          "ghost_votes": 1699,
          "mp_winner_party": "PARTY-0037",
          "mp_number": "7"
        },
        {
          "area_code": "3203",
          "ghost_votes": 1651,
          "mp_winner_party": "PARTY-0037",
          "mp_number": "4"
        }
      ],
      "id": "32",
      "name": "สุรินทร์"
    },
    {
      "count": 5,
      "total_ghost_votes": 18968,
      "areas": [
        {
          "area_code": "7105",
          "ghost_votes": 4700,
          "mp_winner_party": "PARTY-0009",
          "mp_number": "2"
        },
        {
          "area_code": "7104",
          "ghost_votes": 4660,
          "mp_winner_party": "PARTY-0037",
          "mp_number": "1"
        },
        {
          "area_code": "7102",
          "ghost_votes": 4275,
          "mp_winner_party": "PARTY-0037",
          "mp_number": "2"
        },
        {
          "area_code": "7101",
          "ghost_votes": 2679,
          "mp_winner_party": "PARTY-0009",
          "mp_number": "5"
        },
        {
          "area_code": "7103",
          "ghost_votes": 2654,
          "mp_winner_party": "PARTY-0037",
          "mp_number": "5"
        }
      ],
      "id": "71",
      "name": "กาญจนบุรี"
    },
    {
      "count": 6,
      "total_ghost_votes": 18920,
      "areas": [
        {
          "area_code": "6703",
          "ghost_votes": 4190,
          "mp_winner_party": "PARTY-0037",
          "mp_number": "2"
        },
        {
          "area_code": "6705",
          "ghost_votes": 4041,
          "mp_winner_party": "PARTY-0037",
          "mp_number": "2"
        },
        {
          "area_code": "6701",
          "ghost_votes": 3638,
          "mp_winner_party": "PARTY-0037",
          "mp_number": "1"
        },
        {
          "area_code": "6706",
          "ghost_votes": 3180,
          "mp_winner_party": "PARTY-0037",
          "mp_number": "3"
        },
        {
          "area_code": "6702",
          "ghost_votes": 2019,
          "mp_winner_party": "PARTY-0037",
          "mp_number": "4"
        },
        {
          "area_code": "6704",
          "ghost_votes": 1852,
          "mp_winner_party": "PARTY-0037",
          "mp_number": "7"
        }
      ],
      "id": "67",
      "name": "เพชรบูรณ์"
    },
    {
      "count": 6,
      "total_ghost_votes": 16781,
      "areas": [
        {
          "area_code": "5702",
          "ghost_votes": 4255,
          "mp_winner_party": "PARTY-0009",
          "mp_number": "2"
        },
        {
          "area_code": "5705",
          "ghost_votes": 3572,
          "mp_winner_party": "PARTY-0037",
          "mp_number": "2"
        },
        {
          "area_code": "5703",
          "ghost_votes": 2857,
          "mp_winner_party": "PARTY-0042",
          "mp_number": "3"
        },
        {
          "area_code": "5704",
          "ghost_votes": 2308,
          "mp_winner_party": "PARTY-0042",
          "mp_number": "1"
        },
        {
          "area_code": "5701",
          "ghost_votes": 1992,
          "mp_winner_party": "PARTY-0009",
          "mp_number": "7"
        },
        {
          "area_code": "5706",
          "ghost_votes": 1797,
          "mp_winner_party": "PARTY-0042",
          "mp_number": "7"
        }
      ],
      "id": "57",
      "name": "เชียงราย"
    },
    {
      "count": 4,
      "total_ghost_votes": 16412,
      "areas": [
        {
          "area_code": "1904",
          "ghost_votes": 5095,
          "mp_winner_party": "PARTY-0042",
          "mp_number": "5"
        },
        {
          "area_code": "1902",
          "ghost_votes": 4474,
          "mp_winner_party": "PARTY-0037",
          "mp_number": "5"
        },
        {
          "area_code": "1901",
          "ghost_votes": 3484,
          "mp_winner_party": "PARTY-0037",
          "mp_number": "5"
        },
        {
          "area_code": "1903",
          "ghost_votes": 3359,
          "mp_winner_party": "PARTY-0037",
          "mp_number": "5"
        }
      ],
      "id": "19",
      "name": "สระบุรี"
    },
    {
      "count": 5,
      "total_ghost_votes": 15631,
      "areas": [
        {
          "area_code": "7003",
          "ghost_votes": 6288,
          "mp_winner_party": "PARTY-0042",
          "mp_number": "2"
        },
        {
          "area_code": "7002",
          "ghost_votes": 3009,
          "mp_winner_party": "PARTY-0042",
          "mp_number": "4"
        },
        {
          "area_code": "7004",
          "ghost_votes": 2620,
          "mp_winner_party": "PARTY-0037",
          "mp_number": "3"
        },
        {
          "area_code": "7005",
          "ghost_votes": 1868,
          "mp_winner_party": "PARTY-0037",
          "mp_number": "4"
        },
        {
          "area_code": "7001",
          "ghost_votes": 1846,
          "mp_winner_party": "PARTY-0037",
          "mp_number": "4"
        }
      ],
      "id": "70",
      "name": "ราชบุรี"
    },
    {
      "count": 6,
      "total_ghost_votes": 15393,
      "areas": [
        {
          "area_code": "2004",
          "ghost_votes": 4008,
          "mp_winner_party": "PARTY-0037",
          "mp_number": "5"
        },
        {
          "area_code": "2003",
          "ghost_votes": 3434,
          "mp_winner_party": "PARTY-0037",
          "mp_number": "2"
        },
        {
          "area_code": "2008",
          "ghost_votes": 3120,
          "mp_winner_party": "PARTY-0037",
          "mp_number": "5"
        },
        {
          "area_code": "2005",
          "ghost_votes": 3027,
          "mp_winner_party": "PARTY-0037",
          "mp_number": "3"
        },
        {
          "area_code": "2001",
          "ghost_votes": 1317,
          "mp_winner_party": "PARTY-0037",
          "mp_number": "1"
        },
        {
          "area_code": "2009",
          "ghost_votes": 487,
          "mp_winner_party": "PARTY-0046",
          "mp_number": "5"
        }
      ],
      "id": "20",
      "name": "ชลบุรี"
    },
    {
      "count": 7,
      "total_ghost_votes": 14947,
      "areas": [
        {
          "area_code": "5010",
          "ghost_votes": 4126,
          "mp_winner_party": "PARTY-0042",
          "mp_number": "4"
        },
        {
          "area_code": "5009",
          "ghost_votes": 3627,
          "mp_winner_party": "PARTY-0042",
          "mp_number": "5"
        },
        {
          "area_code": "5006",
          "ghost_votes": 3014,
          "mp_winner_party": "PARTY-0042",
          "mp_number": "1"
        },
        {
          "area_code": "5007",
          "ghost_votes": 2166,
          "mp_winner_party": "PARTY-0042",
          "mp_number": "5"
        },
        {
          "area_code": "5003",
          "ghost_votes": 732,
          "mp_winner_party": "PARTY-0046",
          "mp_number": "5"
        },
        {
          "area_code": "5008",
          "ghost_votes": 722,
          "mp_winner_party": "PARTY-0046",
          "mp_number": "4"
        },
        {
          "area_code": "5001",
          "ghost_votes": 560,
          "mp_winner_party": "PARTY-0046",
          "mp_number": "2"
        }
      ],
      "id": "50",
      "name": "เชียงใหม่"
    },
    {
      "count": 4,
      "total_ghost_votes": 14631,
      "areas": [
        {
          "area_code": "2401",
          "ghost_votes": 4193,
          "mp_winner_party": "PARTY-0009",
          "mp_number": "2"
        },
        {
          "area_code": "2403",
          "ghost_votes": 3968,
          "mp_winner_party": "PARTY-0042",
          "mp_number": "4"
        },
        {
          "area_code": "2402",
          "ghost_votes": 3551,
          "mp_winner_party": "PARTY-0042",
          "mp_number": "4"
        },
        {
          "area_code": "2404",
          "ghost_votes": 2919,
          "mp_winner_party": "PARTY-0042",
          "mp_number": "4"
        }
      ],
      "id": "24",
      "name": "ฉะเชิงเทรา"
    },
    {
      "count": 6,
      "total_ghost_votes": 14401,
      "areas": [
        {
          "area_code": "4110",
          "ghost_votes": 3130,
          "mp_winner_party": "PARTY-0009",
          "mp_number": "5"
        },
        {
          "area_code": "4106",
          "ghost_votes": 2700,
          "mp_winner_party": "PARTY-0037",
          "mp_number": "5"
        },
        {
          "area_code": "4103",
          "ghost_votes": 2289,
          "mp_winner_party": "PARTY-0037",
          "mp_number": "1"
        },
        {
          "area_code": "4102",
          "ghost_votes": 2126,
          "mp_winner_party": "PARTY-0009",
          "mp_number": "1"
        },
        {
          "area_code": "4105",
          "ghost_votes": 2085,
          "mp_winner_party": "PARTY-0037",
          "mp_number": "3"
        },
        {
          "area_code": "4104",
          "ghost_votes": 2071,
          "mp_winner_party": "PARTY-0009",
          "mp_number": "3"
        }
      ],
      "id": "41",
      "name": "อุดรธานี"
    },
    {
      "count": 4,
      "total_ghost_votes": 14014,
      "areas": [
        {
          "area_code": "6201",
          "ghost_votes": 5574,
          "mp_winner_party": "PARTY-0042",
          "mp_number": "2"
        },
        {
          "area_code": "6202",
          "ghost_votes": 3762,
          "mp_winner_party": "PARTY-0042",
          "mp_number": "3"
        },
        {
          "area_code": "6203",
          "ghost_votes": 2549,
          "mp_winner_party": "PARTY-0009",
          "mp_number": "4"
        },
        {
          "area_code": "6204",
          "ghost_votes": 2129,
          "mp_winner_party": "PARTY-0009",
          "mp_number": "7"
        }
      ],
      "id": "62",
      "name": "กำแพงเพชร"
    },
    {
      "count": 5,
      "total_ghost_votes": 13661,
      "areas": [
        {
          "area_code": "9604",
          "ghost_votes": 2940,
          "mp_winner_party": "PARTY-0037",
          "mp_number": "5"
        },
        {
          "area_code": "9602",
          "ghost_votes": 2814,
          "mp_winner_party": "PARTY-0042",
          "mp_number": "2"
        },
        {
          "area_code": "9601",
          "ghost_votes": 2779,
          "mp_winner_party": "PARTY-0042",
          "mp_number": "4"
        },
        {
          "area_code": "9603",
          "ghost_votes": 2777,
          "mp_winner_party": "PARTY-0042",
          "mp_number": "2"
        },
        {
          "area_code": "9605",
          "ghost_votes": 2351,
          "mp_winner_party": "PARTY-0033",
          "mp_number": "1"
        }
      ],
      "id": "96",
      "name": "นราธิวาส"
    },
    {
      "count": 5,
      "total_ghost_votes": 13447,
      "areas": [
        {
          "area_code": "4602",
          "ghost_votes": 3493,
          "mp_winner_party": "PARTY-0009",
          "mp_number": "5"
        },
        {
          "area_code": "4605",
          "ghost_votes": 3293,
          "mp_winner_party": "PARTY-0037",
          "mp_number": "5"
        },
        {
          "area_code": "4604",
          "ghost_votes": 2406,
          "mp_winner_party": "PARTY-0009",
          "mp_number": "4"
        },
        {
          "area_code": "4606",
          "ghost_votes": 2370,
          "mp_winner_party": "PARTY-0009",
          "mp_number": "3"
        },
        {
          "area_code": "4603",
          "ghost_votes": 1885,
          "mp_winner_party": "PARTY-0042",
          "mp_number": "4"
        }
      ],
      "id": "46",
      "name": "กาฬสินธุ์"
    },
    {
      "count": 5,
      "total_ghost_votes": 11567,
      "areas": [
        {
          "area_code": "4705",
          "ghost_votes": 3235,
          "mp_winner_party": "PARTY-0042",
          "mp_number": "2"
        },
        {
          "area_code": "4706",
          "ghost_votes": 2620,
          "mp_winner_party": "PARTY-0037",
          "mp_number": "5"
        },
        {
          "area_code": "4703",
          "ghost_votes": 2002,
          "mp_winner_party": "PARTY-0009",
          "mp_number": "4"
        },
        {
          "area_code": "4707",
          "ghost_votes": 1874,
          "mp_winner_party": "PARTY-0009",
          "mp_number": "3"
        },
        {
          "area_code": "4702",
          "ghost_votes": 1836,
          "mp_winner_party": "PARTY-0042",
          "mp_number": "4"
        }
      ],
      "id": "47",
      "name": "สกลนคร"
    },
    {
      "count": 8,
      "total_ghost_votes": 11538,
      "areas": [
        {
          "area_code": "9007",
          "ghost_votes": 2103,
          "mp_winner_party": "PARTY-0037",
          "mp_number": "2"
        },
        {
          "area_code": "9008",
          "ghost_votes": 1801,
          "mp_winner_party": "PARTY-0042",
          "mp_number": "3"
        },
        {
          "area_code": "9005",
          "ghost_votes": 1610,
          "mp_winner_party": "PARTY-0042",
          "mp_number": "3"
        },
        {
          "area_code": "9004",
          "ghost_votes": 1541,
          "mp_winner_party": "PARTY-0042",
          "mp_number": "2"
        },
        {
          "area_code": "9001",
          "ghost_votes": 1245,
          "mp_winner_party": "PARTY-0037",
          "mp_number": "2"
        },
        {
          "area_code": "9003",
          "ghost_votes": 1205,
          "mp_winner_party": "PARTY-0037",
          "mp_number": "5"
        },
        {
          "area_code": "9006",
          "ghost_votes": 1159,
          "mp_winner_party": "PARTY-0037",
          "mp_number": "3"
        },
        {
          "area_code": "9009",
          "ghost_votes": 874,
          "mp_winner_party": "PARTY-0027",
          "mp_number": "2"
        }
      ],
      "id": "90",
      "name": "สงขลา"
    },
    {
      "count": 4,
      "total_ghost_votes": 10952,
      "areas": [
        {
          "area_code": "6402",
          "ghost_votes": 3973,
          "mp_winner_party": "PARTY-0009",
          "mp_number": "2"
        },
        {
          "area_code": "6404",
          "ghost_votes": 3066,
          "mp_winner_party": "PARTY-0037",
          "mp_number": "5"
        },
        {
          "area_code": "6403",
          "ghost_votes": 2050,
          "mp_winner_party": "PARTY-0009",
          "mp_number": "1"
        },
        {
          "area_code": "6401",
          "ghost_votes": 1863,
          "mp_winner_party": "PARTY-0009",
          "mp_number": "5"
        }
      ],
      "id": "64",
      "name": "สุโขทัย"
    },
    {
      "count": 3,
      "total_ghost_votes": 10897,
      "areas": [
        {
          "area_code": "1604",
          "ghost_votes": 4301,
          "mp_winner_party": "PARTY-0009",
          "mp_number": "5"
        },
        {
          "area_code": "1601",
          "ghost_votes": 3340,
          "mp_winner_party": "PARTY-0037",
          "mp_number": "8"
        },
        {
          "area_code": "1602",
          "ghost_votes": 3256,
          "mp_winner_party": "PARTY-0037",
          "mp_number": "3"
        }
      ],
      "id": "16",
      "name": "ลพบุรี"
    },
    {
      "count": 4,
      "total_ghost_votes": 10755,
      "areas": [
        {
          "area_code": "1403",
          "ghost_votes": 4384,
          "mp_winner_party": "PARTY-0037",
          "mp_number": "5"
        },
        {
          "area_code": "1404",
          "ghost_votes": 2421,
          "mp_winner_party": "PARTY-0037",
          "mp_number": "4"
        },
        {
          "area_code": "1402",
          "ghost_votes": 2262,
          "mp_winner_party": "PARTY-0037",
          "mp_number": "7"
        },
        {
          "area_code": "1405",
          "ghost_votes": 1688,
          "mp_winner_party": "PARTY-0037",
          "mp_number": "7"
        }
      ],
      "id": "14",
      "name": "พระนครศรีอยุธยา"
    },
    {
      "count": 5,
      "total_ghost_votes": 10551,
      "areas": [
        {
          "area_code": "9402",
          "ghost_votes": 2799,
          "mp_winner_party": "PARTY-0037",
          "mp_number": "2"
        },
        {
          "area_code": "9405",
          "ghost_votes": 2191,
          "mp_winner_party": "PARTY-0037",
          "mp_number": "4"
        },
        {
          "area_code": "9403",
          "ghost_votes": 2051,
          "mp_winner_party": "PARTY-0037",
          "mp_number": "4"
        },
        {
          "area_code": "9404",
          "ghost_votes": 1960,
          "mp_winner_party": "PARTY-0042",
          "mp_number": "5"
        },
        {
          "area_code": "9401",
          "ghost_votes": 1550,
          "mp_winner_party": "PARTY-0037",
          "mp_number": "5"
        }
      ],
      "id": "94",
      "name": "ปัตตานี"
    },
    {
      "count": 5,
      "total_ghost_votes": 10550,
      "areas": [
        {
          "area_code": "4502",
          "ghost_votes": 4099,
          "mp_winner_party": "PARTY-0042",
          "mp_number": "2"
        },
        {
          "area_code": "4501",
          "ghost_votes": 2139,
          "mp_winner_party": "PARTY-0037",
          "mp_number": "5"
        },
        {
          "area_code": "4503",
          "ghost_votes": 1710,
          "mp_winner_party": "PARTY-0042",
          "mp_number": "3"
        },
        {
          "area_code": "4506",
          "ghost_votes": 1372,
          "mp_winner_party": "PARTY-0009",
          "mp_number": "4"
        },
        {
          "area_code": "4507",
          "ghost_votes": 1230,
          "mp_winner_party": "PARTY-0048",
          "mp_number": "4"
        }
      ],
      "id": "45",
      "name": "ร้อยเอ็ด"
    },
    {
      "count": 3,
      "total_ghost_votes": 10390,
      "areas": [
        {
          "area_code": "2503",
          "ghost_votes": 5614,
          "mp_winner_party": "PARTY-0037",
          "mp_number": "2"
        },
        {
          "area_code": "2502",
          "ghost_votes": 2620,
          "mp_winner_party": "PARTY-0037",
          "mp_number": "3"
        },
        {
          "area_code": "2501",
          "ghost_votes": 2156,
          "mp_winner_party": "PARTY-0037",
          "mp_number": "1"
        }
      ],
      "id": "25",
      "name": "ปราจีนบุรี"
    },
    {
      "count": 3,
      "total_ghost_votes": 10350,
      "areas": [
        {
          "area_code": "7603",
          "ghost_votes": 4697,
          "mp_winner_party": "PARTY-0037",
          "mp_number": "5"
        },
        {
          "area_code": "7602",
          "ghost_votes": 3473,
          "mp_winner_party": "PARTY-0037",
          "mp_number": "5"
        },
        {
          "area_code": "7601",
          "ghost_votes": 2180,
          "mp_winner_party": "PARTY-0037",
          "mp_number": "3"
        }
      ],
      "id": "76",
      "name": "เพชรบุรี"
    },
    {
      "count": 4,
      "total_ghost_votes": 10109,
      "areas": [
        {
          "area_code": "4202",
          "ghost_votes": 4390,
          "mp_winner_party": "PARTY-0009",
          "mp_number": "2"
        },
        {
          "area_code": "4201",
          "ghost_votes": 2062,
          "mp_winner_party": "PARTY-0009",
          "mp_number": "7"
        },
        {
          "area_code": "4203",
          "ghost_votes": 1994,
          "mp_winner_party": "PARTY-0037",
          "mp_number": "3"
        },
        {
          "area_code": "4204",
          "ghost_votes": 1663,
          "mp_winner_party": "PARTY-0009",
          "mp_number": "4"
        }
      ],
      "id": "42",
      "name": "เลย"
    },
    {
      "count": 4,
      "total_ghost_votes": 9984,
      "areas": [
        {
          "area_code": "7304",
          "ghost_votes": 3251,
          "mp_winner_party": "PARTY-0037",
          "mp_number": "8"
        },
        {
          "area_code": "7301",
          "ghost_votes": 2811,
          "mp_winner_party": "PARTY-0037",
          "mp_number": "8"
        },
        {
          "area_code": "7302",
          "ghost_votes": 2567,
          "mp_winner_party": "PARTY-0042",
          "mp_number": "3"
        },
        {
          "area_code": "7305",
          "ghost_votes": 1355,
          "mp_winner_party": "PARTY-0037",
          "mp_number": "7"
        }
      ],
      "id": "73",
      "name": "นครปฐม"
    },
    {
      "count": 4,
      "total_ghost_votes": 9769,
      "areas": [
        {
          "area_code": "7205",
          "ghost_votes": 3197,
          "mp_winner_party": "PARTY-0037",
          "mp_number": "5"
        },
        {
          "area_code": "7204",
          "ghost_votes": 3160,
          "mp_winner_party": "PARTY-0037",
          "mp_number": "5"
        },
        {
          "area_code": "7202",
          "ghost_votes": 1951,
          "mp_winner_party": "PARTY-0037",
          "mp_number": "5"
        },
        {
          "area_code": "7201",
          "ghost_votes": 1461,
          "mp_winner_party": "PARTY-0037",
          "mp_number": "1"
        }
      ],
      "id": "72",
      "name": "สุพรรณบุรี"
    },
    {
      "count": 4,
      "total_ghost_votes": 9527,
      "areas": [
        {
          "area_code": "4802",
          "ghost_votes": 3204,
          "mp_winner_party": "PARTY-0009",
          "mp_number": "1"
        },
        {
          "area_code": "4804",
          "ghost_votes": 2673,
          "mp_winner_party": "PARTY-0009",
          "mp_number": "1"
        },
        {
          "area_code": "4803",
          "ghost_votes": 1934,
          "mp_winner_party": "PARTY-0037",
          "mp_number": "4"
        },
        {
          "area_code": "4801",
          "ghost_votes": 1716,
          "mp_winner_party": "PARTY-0037",
          "mp_number": "1"
        }
      ],
      "id": "48",
      "name": "นครพนม"
    },
    {
      "count": 9,
      "total_ghost_votes": 9048,
      "areas": [
        {
          "area_code": "8005",
          "ghost_votes": 1233,
          "mp_winner_party": "PARTY-0042",
          "mp_number": "5"
        },
        {
          "area_code": "8002",
          "ghost_votes": 1230,
          "mp_winner_party": "PARTY-0037",
          "mp_number": "1"
        },
        {
          "area_code": "8008",
          "ghost_votes": 1173,
          "mp_winner_party": "PARTY-0037",
          "mp_number": "1"
        },
        {
          "area_code": "8001",
          "ghost_votes": 1128,
          "mp_winner_party": "PARTY-0027",
          "mp_number": "2"
        },
        {
          "area_code": "8003",
          "ghost_votes": 1056,
          "mp_winner_party": "PARTY-0027",
          "mp_number": "1"
        },
        {
          "area_code": "8004",
          "ghost_votes": 926,
          "mp_winner_party": "PARTY-0027",
          "mp_number": "5"
        },
        {
          "area_code": "8006",
          "ghost_votes": 914,
          "mp_winner_party": "PARTY-0027",
          "mp_number": "3"
        },
        {
          "area_code": "8007",
          "ghost_votes": 876,
          "mp_winner_party": "PARTY-0037",
          "mp_number": "7"
        },
        {
          "area_code": "8009",
          "ghost_votes": 512,
          "mp_winner_party": "PARTY-0037",
          "mp_number": "7"
        }
      ],
      "id": "80",
      "name": "นครศรีธรรมราช"
    },
    {
      "count": 3,
      "total_ghost_votes": 8930,
      "areas": [
        {
          "area_code": "3503",
          "ghost_votes": 3627,
          "mp_winner_party": "PARTY-0037",
          "mp_number": "2"
        },
        {
          "area_code": "3501",
          "ghost_votes": 3506,
          "mp_winner_party": "PARTY-0037",
          "mp_number": "2"
        },
        {
          "area_code": "3502",
          "ghost_votes": 1797,
          "mp_winner_party": "PARTY-0037",
          "mp_number": "3"
        }
      ],
      "id": "35",
      "name": "ยโสธร"
    },
    {
      "count": 2,
      "total_ghost_votes": 8725,
      "areas": [
        {
          "area_code": "6602",
          "ghost_votes": 4792,
          "mp_winner_party": "PARTY-0037",
          "mp_number": "2"
        },
        {
          "area_code": "6603",
          "ghost_votes": 3933,
          "mp_winner_party": "PARTY-0037",
          "mp_number": "2"
        }
      ],
      "id": "66",
      "name": "พิจิตร"
    },
    {
      "count": 4,
      "total_ghost_votes": 8675,
      "areas": [
        {
          "area_code": "4402",
          "ghost_votes": 3013,
          "mp_winner_party": "PARTY-0037",
          "mp_number": "5"
        },
        {
          "area_code": "4405",
          "ghost_votes": 2284,
          "mp_winner_party": "PARTY-0009",
          "mp_number": "1"
        },
        {
          "area_code": "4404",
          "ghost_votes": 1871,
          "mp_winner_party": "PARTY-0037",
          "mp_number": "3"
        },
        {
          "area_code": "4406",
          "ghost_votes": 1507,
          "mp_winner_party": "PARTY-0037",
          "mp_number": "1"
        }
      ],
      "id": "44",
      "name": "มหาสารคาม"
    },
    {
      "count": 3,
      "total_ghost_votes": 8030,
      "areas": [
        {
          "area_code": "6505",
          "ghost_votes": 4276,
          "mp_winner_party": "PARTY-0037",
          "mp_number": "5"
        },
        {
          "area_code": "6504",
          "ghost_votes": 2144,
          "mp_winner_party": "PARTY-0037",
          "mp_number": "3"
        },
        {
          "area_code": "6502",
          "ghost_votes": 1610,
          "mp_winner_party": "PARTY-0009",
          "mp_number": "1"
        }
      ],
      "id": "65",
      "name": "พิษณุโลก"
    },
    {
      "count": 3,
      "total_ghost_votes": 7782,
      "areas": [
        {
          "area_code": "5302",
          "ghost_votes": 2855,
          "mp_winner_party": "PARTY-0044",
          "mp_number": "4"
        },
        {
          "area_code": "5301",
          "ghost_votes": 2650,
          "mp_winner_party": "PARTY-0037",
          "mp_number": "2"
        },
        {
          "area_code": "5303",
          "ghost_votes": 2277,
          "mp_winner_party": "PARTY-0009",
          "mp_number": "1"
        }
      ],
      "id": "53",
      "name": "อุตรดิตถ์"
    },
    {
      "count": 3,
      "total_ghost_votes": 7613,
      "areas": [
        {
          "area_code": "4303",
          "ghost_votes": 3471,
          "mp_winner_party": "PARTY-0037",
          "mp_number": "2"
        },
        {
          "area_code": "4301",
          "ghost_votes": 2134,
          "mp_winner_party": "PARTY-0043",
          "mp_number": "4"
        },
        {
          "area_code": "4302",
          "ghost_votes": 2008,
          "mp_winner_party": "PARTY-0043",
          "mp_number": "3"
        }
      ],
      "id": "43",
      "name": "หนองคาย"
    },
    {
      "count": 2,
      "total_ghost_votes": 7308,
      "areas": [
        {
          "area_code": "2701",
          "ghost_votes": 4108,
          "mp_winner_party": "PARTY-0043",
          "mp_number": "5"
        },
        {
          "area_code": "2703",
          "ghost_votes": 3200,
          "mp_winner_party": "PARTY-0042",
          "mp_number": "3"
        }
      ],
      "id": "27",
      "name": "สระแก้ว"
    },
    {
      "count": 3,
      "total_ghost_votes": 7255,
      "areas": [
        {
          "area_code": "8101",
          "ghost_votes": 3193,
          "mp_winner_party": "PARTY-0037",
          "mp_number": "2"
        },
        {
          "area_code": "8102",
          "ghost_votes": 2034,
          "mp_winner_party": "PARTY-0037",
          "mp_number": "2"
        },
        {
          "area_code": "8103",
          "ghost_votes": 2028,
          "mp_winner_party": "PARTY-0037",
          "mp_number": "5"
        }
      ],
      "id": "81",
      "name": "กระบี่"
    },
    {
      "count": 2,
      "total_ghost_votes": 7213,
      "areas": [
        {
          "area_code": "5801",
          "ghost_votes": 3709,
          "mp_winner_party": "PARTY-0042",
          "mp_number": "2"
        },
        {
          "area_code": "5802",
          "ghost_votes": 3504,
          "mp_winner_party": "PARTY-0037",
          "mp_number": "5"
        }
      ],
      "id": "58",
      "name": "แม่ฮ่องสอน"
    },
    {
      "count": 2,
      "total_ghost_votes": 6751,
      "areas": [
        {
          "area_code": "6302",
          "ghost_votes": 3702,
          "mp_winner_party": "PARTY-0042",
          "mp_number": "2"
        },
        {
          "area_code": "6301",
          "ghost_votes": 3049,
          "mp_winner_party": "PARTY-0037",
          "mp_number": "1"
        }
      ],
      "id": "63",
      "name": "ตาก"
    },
    {
      "count": 3,
      "total_ghost_votes": 6659,
      "areas": [
        {
          "area_code": "5202",
          "ghost_votes": 2964,
          "mp_winner_party": "PARTY-0042",
          "mp_number": "5"
        },
        {
          "area_code": "5204",
          "ghost_votes": 2501,
          "mp_winner_party": "PARTY-0042",
          "mp_number": "3"
        },
        {
          "area_code": "5201",
          "ghost_votes": 1194,
          "mp_winner_party": "PARTY-0046",
          "mp_number": "8"
        }
      ],
      "id": "52",
      "name": "ลำปาง"
    },
    {
      "count": 3,
      "total_ghost_votes": 6501,
      "areas": [
        {
          "area_code": "2202",
          "ghost_votes": 2711,
          "mp_winner_party": "PARTY-0037",
          "mp_number": "3"
        },
        {
          "area_code": "2203",
          "ghost_votes": 2247,
          "mp_winner_party": "PARTY-0037",
          "mp_number": "3"
        },
        {
          "area_code": "2201",
          "ghost_votes": 1543,
          "mp_winner_party": "PARTY-0037",
          "mp_number": "1"
        }
      ],
      "id": "22",
      "name": "จันทบุรี"
    },
    {
      "count": 3,
      "total_ghost_votes": 6283,
      "areas": [
        {
          "area_code": "7702",
          "ghost_votes": 2737,
          "mp_winner_party": "PARTY-0042",
          "mp_number": "1"
        },
        {
          "area_code": "7701",
          "ghost_votes": 2266,
          "mp_winner_party": "PARTY-0037",
          "mp_number": "3"
        },
        {
          "area_code": "7703",
          "ghost_votes": 1280,
          "mp_winner_party": "PARTY-0037",
          "mp_number": "7"
        }
      ],
      "id": "77",
      "name": "ประจวบคีรีขันธ์"
    },
    {
      "count": 2,
      "total_ghost_votes": 6172,
      "areas": [
        {
          "area_code": "3903",
          "ghost_votes": 3903,
          "mp_winner_party": "PARTY-0042",
          "mp_number": "2"
        },
        {
          "area_code": "3902",
          "ghost_votes": 2269,
          "mp_winner_party": "PARTY-0009",
          "mp_number": "3"
        }
      ],
      "id": "39",
      "name": "หนองบัวลำภู"
    },
    {
      "count": 5,
      "total_ghost_votes": 5790,
      "areas": [
        {
          "area_code": "8403",
          "ghost_votes": 1483,
          "mp_winner_party": "PARTY-0021",
          "mp_number": "5"
        },
        {
          "area_code": "8402",
          "ghost_votes": 1335,
          "mp_winner_party": "PARTY-0037",
          "mp_number": "5"
        },
        {
          "area_code": "8405",
          "ghost_votes": 1316,
          "mp_winner_party": "PARTY-0042",
          "mp_number": "5"
        },
        {
          "area_code": "8404",
          "ghost_votes": 1036,
          "mp_winner_party": "PARTY-0027",
          "mp_number": "5"
        },
        {
          "area_code": "8401",
          "ghost_votes": 620,
          "mp_winner_party": "PARTY-0037",
          "mp_number": "3"
        }
      ],
      "id": "84",
      "name": "สุราษฎร์ธานี"
    },
    {
      "count": 2,
      "total_ghost_votes": 5325,
      "areas": [
        {
          "area_code": "4902",
          "ghost_votes": 3451,
          "mp_winner_party": "PARTY-0042",
          "mp_number": "1"
        },
        {
          "area_code": "4901",
          "ghost_votes": 1874,
          "mp_winner_party": "PARTY-0037",
          "mp_number": "4"
        }
      ],
      "id": "49",
      "name": "มุกดาหาร"
    },
    {
      "count": 2,
      "total_ghost_votes": 5297,
      "areas": [
        {
          "area_code": "1502",
          "ghost_votes": 3899,
          "mp_winner_party": "PARTY-0037",
          "mp_number": "2"
        },
        {
          "area_code": "1501",
          "ghost_votes": 1398,
          "mp_winner_party": "PARTY-0037",
          "mp_number": "4"
        }
      ],
      "id": "15",
      "name": "อ่างทอง"
    },
    {
      "count": 2,
      "total_ghost_votes": 5276,
      "areas": [
        {
          "area_code": "6102",
          "ghost_votes": 3020,
          "mp_winner_party": "PARTY-0037",
          "mp_number": "2"
        },
        {
          "area_code": "6101",
          "ghost_votes": 2256,
          "mp_winner_party": "PARTY-0037",
          "mp_number": "2"
        }
      ],
      "id": "61",
      "name": "อุทัยธานี"
    },
    {
      "count": 2,
      "total_ghost_votes": 5186,
      "areas": [
        {
          "area_code": "1802",
          "ghost_votes": 2976,
          "mp_winner_party": "PARTY-0037",
          "mp_number": "1"
        },
        {
          "area_code": "1801",
          "ghost_votes": 2210,
          "mp_winner_party": "PARTY-0009",
          "mp_number": "3"
        }
      ],
      "id": "18",
      "name": "ชัยนาท"
    },
    {
      "count": 2,
      "total_ghost_votes": 5125,
      "areas": [
        {
          "area_code": "7404",
          "ghost_votes": 3006,
          "mp_winner_party": "PARTY-0037",
          "mp_number": "1"
        },
        {
          "area_code": "7402",
          "ghost_votes": 2119,
          "mp_winner_party": "PARTY-0037",
          "mp_number": "1"
        }
      ],
      "id": "74",
      "name": "สมุทรสาคร"
    },
    {
      "count": 3,
      "total_ghost_votes": 5090,
      "areas": [
        {
          "area_code": "5603",
          "ghost_votes": 2429,
          "mp_winner_party": "PARTY-0042",
          "mp_number": "1"
        },
        {
          "area_code": "5602",
          "ghost_votes": 1791,
          "mp_winner_party": "PARTY-0042",
          "mp_number": "1"
        },
        {
          "area_code": "5601",
          "ghost_votes": 870,
          "mp_winner_party": "PARTY-0042",
          "mp_number": "3"
        }
      ],
      "id": "56",
      "name": "พะเยา"
    },
    {
      "count": 3,
      "total_ghost_votes": 5077,
      "areas": [
        {
          "area_code": "9503",
          "ghost_votes": 2074,
          "mp_winner_party": "PARTY-0033",
          "mp_number": "3"
        },
        {
          "area_code": "9502",
          "ghost_votes": 1676,
          "mp_winner_party": "PARTY-0033",
          "mp_number": "7"
        },
        {
          "area_code": "9501",
          "ghost_votes": 1327,
          "mp_winner_party": "PARTY-0033",
          "mp_number": "3"
        }
      ],
      "id": "95",
      "name": "ยะลา"
    },
    {
      "count": 3,
      "total_ghost_votes": 4925,
      "areas": [
        {
          "area_code": "1308",
          "ghost_votes": 1916,
          "mp_winner_party": "PARTY-0037",
          "mp_number": "3"
        },
        {
          "area_code": "1302",
          "ghost_votes": 1611,
          "mp_winner_party": "PARTY-0009",
          "mp_number": "1"
        },
        {
          "area_code": "1307",
          "ghost_votes": 1398,
          "mp_winner_party": "PARTY-0037",
          "mp_number": "4"
        }
      ],
      "id": "13",
      "name": "ปทุมธานี"
    },
    {
      "count": 2,
      "total_ghost_votes": 4924,
      "areas": [
        {
          "area_code": "5503",
          "ghost_votes": 2480,
          "mp_winner_party": "PARTY-0046",
          "mp_number": "2"
        },
        {
          "area_code": "5502",
          "ghost_votes": 2444,
          "mp_winner_party": "PARTY-0042",
          "mp_number": "3"
        }
      ],
      "id": "55",
      "name": "น่าน"
    },
    {
      "count": 4,
      "total_ghost_votes": 4818,
      "areas": [
        {
          "area_code": "9204",
          "ghost_votes": 1582,
          "mp_winner_party": "PARTY-0027",
          "mp_number": "2"
        },
        {
          "area_code": "9202",
          "ghost_votes": 1254,
          "mp_winner_party": "PARTY-0037",
          "mp_number": "4"
        },
        {
          "area_code": "9201",
          "ghost_votes": 1198,
          "mp_winner_party": "PARTY-0037",
          "mp_number": "1"
        },
        {
          "area_code": "9203",
          "ghost_votes": 784,
          "mp_winner_party": "PARTY-0027",
          "mp_number": "5"
        }
      ],
      "id": "92",
      "name": "ตรัง"
    },
    {
      "count": 11,
      "total_ghost_votes": 4781,
      "areas": [
        {
          "area_code": "1018",
          "ghost_votes": 706,
          "mp_winner_party": "PARTY-0046",
          "mp_number": "10"
        },
        {
          "area_code": "1031",
          "ghost_votes": 704,
          "mp_winner_party": "PARTY-0046",
          "mp_number": "12"
        },
        {
          "area_code": "1017",
          "ghost_votes": 660,
          "mp_winner_party": "PARTY-0046",
          "mp_number": "10"
        },
        {
          "area_code": "1016",
          "ghost_votes": 635,
          "mp_winner_party": "PARTY-0046",
          "mp_number": "10"
        },
        {
          "area_code": "1021",
          "ghost_votes": 539,
          "mp_winner_party": "PARTY-0046",
          "mp_number": "8"
        },
        {
          "area_code": "1020",
          "ghost_votes": 350,
          "mp_winner_party": "PARTY-0046",
          "mp_number": "7"
        },
        {
          "area_code": "1023",
          "ghost_votes": 287,
          "mp_winner_party": "PARTY-0046",
          "mp_number": "15"
        },
        {
          "area_code": "1006",
          "ghost_votes": 240,
          "mp_winner_party": "PARTY-0046",
          "mp_number": "7"
        },
        {
          "area_code": "1013",
          "ghost_votes": 226,
          "mp_winner_party": "PARTY-0046",
          "mp_number": "7"
        },
        {
          "area_code": "1025",
          "ghost_votes": 223,
          "mp_winner_party": "PARTY-0046",
          "mp_number": "7"
        },
        {
          "area_code": "1011",
          "ghost_votes": 211,
          "mp_winner_party": "PARTY-0046",
          "mp_number": "15"
        }
      ],
      "id": "10",
      "name": "กรุงเทพมหานคร"
    },
    {
      "count": 2,
      "total_ghost_votes": 4744,
      "areas": [
        {
          "area_code": "3702",
          "ghost_votes": 2717,
          "mp_winner_party": "PARTY-0037",
          "mp_number": "5"
        },
        {
          "area_code": "3701",
          "ghost_votes": 2027,
          "mp_winner_party": "PARTY-0037",
          "mp_number": "5"
        }
      ],
      "id": "37",
      "name": "อำนาจเจริญ"
    },
    {
      "count": 3,
      "total_ghost_votes": 4670,
      "areas": [
        {
          "area_code": "2104",
          "ghost_votes": 2238,
          "mp_winner_party": "PARTY-0037",
          "mp_number": "2"
        },
        {
          "area_code": "2103",
          "ghost_votes": 1426,
          "mp_winner_party": "PARTY-0027",
          "mp_number": "5"
        },
        {
          "area_code": "2105",
          "ghost_votes": 1006,
          "mp_winner_party": "PARTY-0046",
          "mp_number": "2"
        }
      ],
      "id": "21",
      "name": "ระยอง"
    },
    {
      "count": 2,
      "total_ghost_votes": 4177,
      "areas": [
        {
          "area_code": "3803",
          "ghost_votes": 2455,
          "mp_winner_party": "PARTY-0037",
          "mp_number": "1"
        },
        {
          "area_code": "3802",
          "ghost_votes": 1722,
          "mp_winner_party": "PARTY-0037",
          "mp_number": "3"
        }
      ],
      "id": "38",
      "name": "บึงกาฬ"
    },
    {
      "count": 1,
      "total_ghost_votes": 4033,
      "areas": [
        {
          "area_code": "1701",
          "ghost_votes": 4033,
          "mp_winner_party": "PARTY-0037",
          "mp_number": "5"
        }
      ],
      "id": "17",
      "name": "สิงห์บุรี"
    },
    {
      "count": 1,
      "total_ghost_votes": 3516,
      "areas": [
        {
          "area_code": "2601",
          "ghost_votes": 3516,
          "mp_winner_party": "PARTY-0042",
          "mp_number": "2"
        }
      ],
      "id": "26",
      "name": "นครนายก"
    },
    {
      "count": 2,
      "total_ghost_votes": 3109,
      "areas": [
        {
          "area_code": "5102",
          "ghost_votes": 1921,
          "mp_winner_party": "PARTY-0046",
          "mp_number": "3"
        },
        {
          "area_code": "5101",
          "ghost_votes": 1188,
          "mp_winner_party": "PARTY-0046",
          "mp_number": "1"
        }
      ],
      "id": "51",
      "name": "ลำพูน"
    },
    {
      "count": 1,
      "total_ghost_votes": 3076,
      "areas": [
        {
          "area_code": "2301",
          "ghost_votes": 3076,
          "mp_winner_party": "PARTY-0037",
          "mp_number": "1"
        }
      ],
      "id": "23",
      "name": "ตราด"
    },
    {
      "count": 3,
      "total_ghost_votes": 2649,
      "areas": [
        {
          "area_code": "8602",
          "ghost_votes": 932,
          "mp_winner_party": "PARTY-0037",
          "mp_number": "4"
        },
        {
          "area_code": "8603",
          "ghost_votes": 881,
          "mp_winner_party": "PARTY-0037",
          "mp_number": "4"
        },
        {
          "area_code": "8601",
          "ghost_votes": 836,
          "mp_winner_party": "PARTY-0037",
          "mp_number": "4"
        }
      ],
      "id": "86",
      "name": "ชุมพร"
    },
    {
      "count": 3,
      "total_ghost_votes": 2573,
      "areas": [
        {
          "area_code": "1106",
          "ghost_votes": 1267,
          "mp_winner_party": "PARTY-0037",
          "mp_number": "4"
        },
        {
          "area_code": "1107",
          "ghost_votes": 813,
          "mp_winner_party": "PARTY-0046",
          "mp_number": "8"
        },
        {
          "area_code": "1104",
          "ghost_votes": 493,
          "mp_winner_party": "PARTY-0046",
          "mp_number": "2"
        }
      ],
      "id": "11",
      "name": "สมุทรปราการ"
    },
    {
      "count": 2,
      "total_ghost_votes": 2524,
      "areas": [
        {
          "area_code": "5402",
          "ghost_votes": 1634,
          "mp_winner_party": "PARTY-0037",
          "mp_number": "1"
        },
        {
          "area_code": "5401",
          "ghost_votes": 890,
          "mp_winner_party": "PARTY-0037",
          "mp_number": "1"
        }
      ],
      "id": "54",
      "name": "แพร่"
    },
    {
      "count": 2,
      "total_ghost_votes": 2522,
      "areas": [
        {
          "area_code": "9101",
          "ghost_votes": 1370,
          "mp_winner_party": "PARTY-0037",
          "mp_number": "3"
        },
        {
          "area_code": "9102",
          "ghost_votes": 1152,
          "mp_winner_party": "PARTY-0037",
          "mp_number": "4"
        }
      ],
      "id": "91",
      "name": "สตูล"
    },
    {
      "count": 2,
      "total_ghost_votes": 2435,
      "areas": [
        {
          "area_code": "8201",
          "ghost_votes": 1302,
          "mp_winner_party": "PARTY-0037",
          "mp_number": "5"
        },
        {
          "area_code": "8202",
          "ghost_votes": 1133,
          "mp_winner_party": "PARTY-0037",
          "mp_number": "3"
        }
      ],
      "id": "82",
      "name": "พังงา"
    },
    {
      "count": 2,
      "total_ghost_votes": 1972,
      "areas": [
        {
          "area_code": "9302",
          "ghost_votes": 1185,
          "mp_winner_party": "PARTY-0037",
          "mp_number": "1"
        },
        {
          "area_code": "9301",
          "ghost_votes": 787,
          "mp_winner_party": "PARTY-0037",
          "mp_number": "4"
        }
      ],
      "id": "93",
      "name": "พัทลุง"
    },
    {
      "count": 1,
      "total_ghost_votes": 1213,
      "areas": [
        {
          "area_code": "8303",
          "ghost_votes": 1213,
          "mp_winner_party": "PARTY-0042",
          "mp_number": "3"
        }
      ],
      "id": "83",
      "name": "ภูเก็ต"
    },
    {
      "count": 1,
      "total_ghost_votes": 1070,
      "areas": [
        {
          "area_code": "7501",
          "ghost_votes": 1070,
          "mp_winner_party": "PARTY-0046",
          "mp_number": "5"
        }
      ],
      "id": "75",
      "name": "สมุทรสงคราม"
    },
    {
      "count": 1,
      "total_ghost_votes": 993,
      "areas": [
        {
          "area_code": "8501",
          "ghost_votes": 993,
          "mp_winner_party": "PARTY-0037",
          "mp_number": "4"
        }
      ],
      "id": "85",
      "name": "ระนอง"
    },
    {
      "count": 2,
      "total_ghost_votes": 582,
      "areas": [
        {
          "area_code": "1202",
          "ghost_votes": 301,
          "mp_winner_party": "PARTY-0046",
          "mp_number": "7"
        },
        {
          "area_code": "1203",
          "ghost_votes": 281,
          "mp_winner_party": "PARTY-0046",
          "mp_number": "7"
        }
      ],
      "id": "12",
      "name": "นนทบุรี"
    }
  ]
}